[{"OBJECT_NAME":"LEMUR-2-BALTO","OBJECT_ID":"2025-052BH","EPOCH":"2026-03-09T16:40:42.002112","MEAN_MOTION":14.98934076,"ECCENTRICITY":0.00022794,"INCLINATION":97.6978,"RA_OF_ASC_NODE":323.5166,"ARG_OF_PERICENTER":359.2852,"MEAN_ANOMALY":0.8367,"EPHEMERIS_TYPE":0,"CLASSIFICATION_TYPE":"U","NORAD_CAT_ID":63395,"ELEMENT_SET_NO":999,"REV_AT_EPOCH":5385,"BSTAR":0.00063455958,"MEAN_MOTION_DOT":7.621e-5,"MEAN_MOTION_DDOT":0},{"OBJECT_NAME":"STARLINK-34662","OBJECT_ID":"2025-150K","EPOCH":"2026-03-09T13:47:22.549056","MEAN_MOTION":14.98328392,"ECCENTRICITY":0.0003384,"INCLINATION":70.0016,"RA_OF_ASC_NODE":134.5869,"ARG_OF_PERICENTER":269.487,"MEAN_ANOMALY":90.5901,"EPHEMERIS_TYPE":0,"CLASSIFICATION_TYPE":"U","NORAD_CAT_ID":64799,"ELEMENT_SET_NO":999,"REV_AT_EPOCH":3650,"BSTAR":0.00033666,"MEAN_MOTION_DOT":3.926e-5,"MEAN_MOTION_DDOT":0}]
